[{"OBJECT_NAME":"KUIPER-00080","OBJECT_ID":"2025-151M","EPOCH":"2026-03-09T22:17:34.050048","MEAN_MOTION":14.79937756,"ECCENTRICITY":8.294e-5,"INCLINATION":51.8982,"RA_OF_ASC_NODE":299.5145,"ARG_OF_PERICENTER":86.1378,"MEAN_ANOMALY":273.9679,"EPHEMERIS_TYPE":0,"CLASSIFICATION_TYPE":"U","NORAD_CAT_ID":64827,"ELEMENT_SET_NO":999,"REV_AT_EPOCH":3534,"BSTAR":0.00028328024,"MEAN_MOTION_DOT":1.939e-5,"MEAN_MOTION_DDOT":0},{"OBJECT_NAME":"COSMOS 2251 DEB","OBJECT_ID":"1993-036DQ","EPOCH":"2026-03-09T22:46:14.377728","MEAN_MOTION":14.7753798,"ECCENTRICITY":0.00154162,"INCLINATION":74.092,"RA_OF_ASC_NODE":351.6782,"ARG_OF_PERICENTER":258.0076,"MEAN_ANOMALY":222.0326,"EPHEMERIS_TYPE":0,"CLASSIFICATION_TYPE":"U","NORAD_CAT_ID":33911,"ELEMENT_SET_NO":999,"REV_AT_EPOCH":89931,"BSTAR":0.002265833,"MEAN_MOTION_DOT":0.00016213,"MEAN_MOTION_DDOT":0}]
